STARLINK-5812           
1 55774U 23028AK  26068.81954901  .00001706  00000+0  15065-3 0  9995
2 55774  69.9995 224.0828 0002870 264.2118  95.8714 14.98342308166553
ION SCV-022             
1 66682U 25276S   26068.74520243  .00001950  00000+0  17277-3 0  9990
2 66682  97.5376 142.9780 0004539 154.7099 205.4346 14.97347265 15192
